{
  "norad_id": 48311,
  "name": "STARLINK-2534",
  "history": [
    {
      "epoch": "2026-03-28T22:05:03.871680Z",
      "apogee_km": 476.2538238450652,
      "perigee_km": 474.122713819469,
      "latitude_deg": -2.8180401356546405e-05,
      "longitude_deg": -158.29196337062513,
      "height_km": 476.22799350483143,
      "semi_major_axis_km": 6853.325268832266,
      "eccentricity": 0.00015548,
      "inclination_deg": 53.1607,
      "raan_deg": 359.3079,
      "arg_perigee_deg": 97.6553,
      "mean_anomaly_deg": 262.4624,
      "mean_motion_rev_day": 15.30208976
    },
    {
      "epoch": "2026-03-29T01:13:10.072128Z",
      "apogee_km": 476.1410482474721,
      "perigee_km": 474.2111552780143,
      "latitude_deg": -2.6148865830547847e-05,
      "longitude_deg": 153.94745077587385,
      "height_km": 476.2825822322954,
      "semi_major_axis_km": 6853.313101762743,
      "eccentricity": 0.0001408,
      "inclination_deg": 53.1607,
      "raan_deg": 358.7019,
      "arg_perigee_deg": 102.4767,
      "mean_anomaly_deg": 257.6391,
      "mean_motion_rev_day": 15.30213051
    },
    {
      "epoch": "2026-03-30T03:52:04.740672Z",
      "apogee_km": 476.0812643502486,
      "perigee_km": 474.4008160547901,
      "latitude_deg": 3.3579728002557074e-05,
      "longitude_deg": 107.96789455555172,
      "height_km": 476.30213925572997,
      "semi_major_axis_km": 6853.378040202519,
      "eccentricity": 0.0001226,
      "inclination_deg": 53.1601,
      "raan_deg": 353.5445,
      "arg_perigee_deg": 101.1814,
      "mean_anomaly_deg": 258.9325,
      "mean_motion_rev_day": 15.30191302
    },
    {
      "epoch": "2026-03-30T10:08:17.589120Z",
      "apogee_km": 476.03923284963366,
      "perigee_km": 474.40758480349996,
      "latitude_deg": 7.78690236497665e-05,
      "longitude_deg": 12.443583225371468,
      "height_km": 476.29578271762404,
      "semi_major_axis_km": 6853.3604088265665,
      "eccentricity": 0.00011904,
      "inclination_deg": 53.1602,
      "raan_deg": 352.3312,
      "arg_perigee_deg": 102.3253,
      "mean_anomaly_deg": 257.7882,
      "mean_motion_rev_day": 15.30197207
    },
    {
      "epoch": "2026-03-30T21:06:39.704544Z",
      "apogee_km": 475.974514979931,
      "perigee_km": 474.3908498677165,
      "latitude_deg": 6.176490573277549e-06,
      "longitude_deg": -154.7227545471404,
      "height_km": 476.2799179260414,
      "semi_major_axis_km": 6853.319682423824,
      "eccentricity": 0.00011554,
      "inclination_deg": 53.1597,
      "raan_deg": 350.2077,
      "arg_perigee_deg": 104.5544,
      "mean_anomaly_deg": 255.5585,
      "mean_motion_rev_day": 15.30210847
    },
    {
      "epoch": "2026-03-31T00:14:45.897216Z",
      "apogee_km": 475.9543651314889,
      "perigee_km": 474.3683748227086,
      "latitude_deg": -1.666180416102328e-05,
      "longitude_deg": 157.51597371781833,
      "height_km": 476.23178191341384,
      "semi_major_axis_km": 6853.298369977098,
      "eccentricity": 0.00011571,
      "inclination_deg": 53.1601,
      "raan_deg": 349.601,
      "arg_perigee_deg": 102.5365,
      "mean_anomaly_deg": 257.5765,
      "mean_motion_rev_day": 15.30217985
    },
    {
      "epoch": "2026-04-01T02:53:41.186112Z",
      "apogee_km": 475.9238753535983,
      "perigee_km": 474.58623029272803,
      "latitude_deg": 3.765311561767588e-05,
      "longitude_deg": 111.53392245663389,
      "height_km": 476.1415674444284,
      "semi_major_axis_km": 6853.392052823163,
      "eccentricity": 9.759e-05,
      "inclination_deg": 53.1607,
      "raan_deg": 344.4437,
      "arg_perigee_deg": 88.97,
      "mean_anomaly_deg": 271.1413,
      "mean_motion_rev_day": 15.30186609
    },
    {
      "epoch": "2026-04-02T21:13:07.655232Z",
      "apogee_km": 475.9375874336529,
      "perigee_km": 474.491530254737,
      "latitude_deg": 4.5702687907216376e-05,
      "longitude_deg": -173.2587435486015,
      "height_km": 475.9772922478648,
      "semi_major_axis_km": 6853.351558844194,
      "eccentricity": 0.0001055,
      "inclination_deg": 53.16,
      "raan_deg": 336.2495,
      "arg_perigee_deg": 79.1861,
      "mean_anomaly_deg": 280.9259,
      "mean_motion_rev_day": 15.30200171
    },
    {
      "epoch": "2026-04-02T22:47:10.959360Z",
      "apogee_km": 475.9552493535175,
      "perigee_km": 474.48876759288487,
      "latitude_deg": -2.913940180535449e-05,
      "longitude_deg": 162.86015512951857,
      "height_km": 475.99094577413,
      "semi_major_axis_km": 6853.359008473201,
      "eccentricity": 0.00010699,
      "inclination_deg": 53.16,
      "raan_deg": 335.9466,
      "arg_perigee_deg": 79.8324,
      "mean_anomaly_deg": 280.2797,
      "mean_motion_rev_day": 15.30197676
    },
    {
      "epoch": "2026-04-03T20:43:55.347456Z",
      "apogee_km": 475.96635457400134,
      "perigee_km": 474.51343867191736,
      "latitude_deg": 1.144794563401417e-05,
      "longitude_deg": -171.4744414294962,
      "height_km": 475.7756503849607,
      "semi_major_axis_km": 6853.376896622959,
      "eccentricity": 0.000106,
      "inclination_deg": 53.1598,
      "raan_deg": 331.6982,
      "arg_perigee_deg": 60.0413,
      "mean_anomaly_deg": 300.0693,
      "mean_motion_rev_day": 15.30191685
    }
  ]
}